[{"OBJECT_NAME":"ONEWEB-0137","OBJECT_ID":"2020-100AB","EPOCH":"2026-06-09T01:38:01.336128","MEAN_MOTION":13.12443281,"ECCENTRICITY":0.0001941,"INCLINATION":87.8951,"RA_OF_ASC_NODE":352.274,"ARG_OF_PERICENTER":88.7401,"MEAN_ANOMALY":271.395,"EPHEMERIS_TYPE":0,"CLASSIFICATION_TYPE":"U","NORAD_CAT_ID":47283,"ELEMENT_SET_NO":999,"REV_AT_EPOCH":26350,"BSTAR":0.0010826,"MEAN_MOTION_DOT":4.02e-06,"MEAN_MOTION_DDOT":0.0},{"OBJECT_NAME":"ONEWEB-0138","OBJECT_ID":"2020-100AC","EPOCH":"2026-06-09T06:35:39.415200","MEAN_MOTION":13.12444213,"ECCENTRICITY":0.0001654,"INCLINATION":87.895,"RA_OF_ASC_NODE":352.2391,"ARG_OF_PERICENTER":95.0384,"MEAN_ANOMALY":265.0933,"EPHEMERIS_TYPE":0,"CLASSIFICATION_TYPE":"U","NORAD_CAT_ID":47284,"ELEMENT_SET_NO":999,"REV_AT_EPOCH":26361,"BSTAR":0.00036215000000000005,"MEAN_MOTION_DOT":1.43e-06,"MEAN_MOTION_DDOT":0.0},{"OBJECT_NAME":"ONEWEB-0139","OBJECT_ID":"2020-100AD","EPOCH":"2026-06-09T05:44:36.766752","MEAN_MOTION":13.12443463,"ECCENTRICITY":0.0001765,"INCLINATION":87.8947,"RA_OF_ASC_NODE":352.2322,"ARG_OF_PERICENTER":90.1701,"MEAN_ANOMALY":269.963,"EPHEMERIS_TYPE":0,"CLASSIFICATION_TYPE":"U","NORAD_CAT_ID":47285,"ELEMENT_SET_NO":999,"REV_AT_EPOCH":26368,"BSTAR":-0.00047293000000000004,"MEAN_MOTION_DOT":-1.57e-06,"MEAN_MOTION_DDOT":0.0},{"OBJECT_NAME":"ONEWEB-0140","OBJECT_ID":"2020-100AE","EPOCH":"2026-06-09T00:58:59.267136","MEAN_MOTION":13.12444002,"ECCENTRICITY":0.0001702,"INCLINATION":87.8949,"RA_OF_ASC_NODE":352.2627,"ARG_OF_PERICENTER":84.2522,"MEAN_ANOMALY":275.8801,"EPHEMERIS_TYPE":0,"CLASSIFICATION_TYPE":"U","NORAD_CAT_ID":47286,"ELEMENT_SET_NO":999,"REV_AT_EPOCH":26362,"BSTAR":5.283600000000001e-05,"MEAN_MOTION_DOT":3.2e-07,"MEAN_MOTION_DDOT":0.0},{"OBJECT_NAME":"ONEWEB-0141","OBJECT_ID":"2020-100AF","EPOCH":"2026-06-09T05:44:12.986880","MEAN_MOTION":13.12443265,"ECCENTRICITY":0.000209,"INCLINATION":87.8949,"RA_OF_ASC_NODE":352.2279,"ARG_OF_PERICENTER":90.7004,"MEAN_ANOMALY":269.4364,"EPHEMERIS_TYPE":0,"CLASSIFICATION_TYPE":"U","NORAD_CAT_ID":47287,"ELEMENT_SET_NO":999,"REV_AT_EPOCH":26363,"BSTAR":-0.00043113,"MEAN_MOTION_DOT":-1.42e-06,"MEAN_MOTION_DDOT":0.0},{"OBJECT_NAME":"ONEWEB-0142","OBJECT_ID":"2020-100AG","EPOCH":"2026-06-09T05:27:34.062048","MEAN_MOTION":13.12441827,"ECCENTRICITY":0.0002031,"INCLINATION":87.8943,"RA_OF_ASC_NODE":352.2524,"ARG_OF_PERICENTER":99.8148,"MEAN_ANOMALY":260.321,"EPHEMERIS_TYPE":0,"CLASSIFICATION_TYPE":"U","NORAD_CAT_ID":47288,"ELEMENT_SET_NO":999,"REV_AT_EPOCH":26362,"BSTAR":0.00063395,"MEAN_MOTION_DOT":2.41e-06,"MEAN_MOTION_DDOT":0.0},{"OBJECT_NAME":"ONEWEB-0143","OBJECT_ID":"2020-100AH","EPOCH":"2026-06-09T05:41:58.630560","MEAN_MOTION":13.12442917,"ECCENTRICITY":0.0001835,"INCLINATION":87.8948,"RA_OF_ASC_NODE":352.2488,"ARG_OF_PERICENTER":88.7392,"MEAN_ANOMALY":271.3947,"EPHEMERIS_TYPE":0,"CLASSIFICATION_TYPE":"U","NORAD_CAT_ID":47289,"ELEMENT_SET_NO":999,"REV_AT_EPOCH":26360,"BSTAR":-0.00040301,"MEAN_MOTION_DOT":-1.32e-06,"MEAN_MOTION_DDOT":0.0},{"OBJECT_NAME":"ONEWEB-0144","OBJECT_ID":"2020-100AJ","EPOCH":"2026-06-09T06:50:18.971520","MEAN_MOTION":13.12444241,"ECCENTRICITY":0.00017,"INCLINATION":87.8952,"RA_OF_ASC_NODE":352.2131,"ARG_OF_PERICENTER":101.2038,"MEAN_ANOMALY":258.9282,"EPHEMERIS_TYPE":0,"CLASSIFICATION_TYPE":"U","NORAD_CAT_ID":47290,"ELEMENT_SET_NO":999,"REV_AT_EPOCH":26353,"BSTAR":0.0012219,"MEAN_MOTION_DOT":4.52e-06,"MEAN_MOTION_DDOT":0.0},{"OBJECT_NAME":"ONEWEB-0145","OBJECT_ID":"2020-100AK","EPOCH":"2026-06-09T06:08:48.601248","MEAN_MOTION":13.12443876,"ECCENTRICITY":0.0001799,"INCLINATION":87.8942,"RA_OF_ASC_NODE":352.248,"ARG_OF_PERICENTER":92.1805,"MEAN_ANOMALY":267.953,"EPHEMERIS_TYPE":0,"CLASSIFICATION_TYPE":"U","NORAD_CAT_ID":47291,"ELEMENT_SET_NO":999,"REV_AT_EPOCH":26372,"BSTAR":-0.0010227,"MEAN_MOTION_DOT":-3.55e-06,"MEAN_MOTION_DDOT":0.0},{"OBJECT_NAME":"ONEWEB-0146","OBJECT_ID":"2020-100AL","EPOCH":"2026-06-09T06:03:56.083680","MEAN_MOTION":13.12443634,"ECCENTRICITY":0.0001818,"INCLINATION":87.8949,"RA_OF_ASC_NODE":352.2393,"ARG_OF_PERICENTER":78.1307,"MEAN_ANOMALY":282.0026,"EPHEMERIS_TYPE":0,"CLASSIFICATION_TYPE":"U","NORAD_CAT_ID":47292,"ELEMENT_SET_NO":999,"REV_AT_EPOCH":26363,"BSTAR":-0.0012884,"MEAN_MOTION_DOT":-4.51e-06,"MEAN_MOTION_DDOT":0.0},{"OBJECT_NAME":"ONEWEB-0147","OBJECT_ID":"2020-100AM","EPOCH":"2026-06-09T01:35:35.066112","MEAN_MOTION":13.12443434,"ECCENTRICITY":0.0001617,"INCLINATION":87.895,"RA_OF_ASC_NODE":352.2578,"ARG_OF_PERICENTER":88.4831,"MEAN_ANOMALY":271.6483,"EPHEMERIS_TYPE":0,"CLASSIFICATION_TYPE":"U","NORAD_CAT_ID":47293,"ELEMENT_SET_NO":999,"REV_AT_EPOCH":26350,"BSTAR":0.0010859,"MEAN_MOTION_DOT":4.03e-06,"MEAN_MOTION_DDOT":0.0},{"OBJECT_NAME":"ONEWEB-0115","OBJECT_ID":"2021-025A","EPOCH":"2026-06-09T04:14:58.817760","MEAN_MOTION":13.13469769,"ECCENTRICITY":0.0001795,"INCLINATION":87.8952,"RA_OF_ASC_NODE":321.8186,"ARG_OF_PERICENTER":92.9693,"MEAN_ANOMALY":267.1641,"EPHEMERIS_TYPE":0,"CLASSIFICATION_TYPE":"U","NORAD_CAT_ID":48042,"ELEMENT_SET_NO":999,"REV_AT_EPOCH":25254,"BSTAR":-0.00061992,"MEAN_MOTION_DOT":-2.14e-06,"MEAN_MOTION_DDOT":0.0},{"OBJECT_NAME":"ONEWEB-0152","OBJECT_ID":"2021-025B","EPOCH":"2026-06-09T04:34:28.937280","MEAN_MOTION":13.13470402,"ECCENTRICITY":0.0001753,"INCLINATION":87.8954,"RA_OF_ASC_NODE":321.8124,"ARG_OF_PERICENTER":90.6043,"MEAN_ANOMALY":269.5287,"EPHEMERIS_TYPE":0,"CLASSIFICATION_TYPE":"U","NORAD_CAT_ID":48043,"ELEMENT_SET_NO":999,"REV_AT_EPOCH":25250,"BSTAR":0.0003018,"MEAN_MOTION_DOT":1.23e-06,"MEAN_MOTION_DDOT":0.0},{"OBJECT_NAME":"ONEWEB-0153","OBJECT_ID":"2021-025C","EPOCH":"2026-06-09T04:02:47.109984","MEAN_MOTION":13.13470196,"ECCENTRICITY":0.0001856,"INCLINATION":87.8948,"RA_OF_ASC_NODE":321.82,"ARG_OF_PERICENTER":96.8181,"MEAN_ANOMALY":263.316,"EPHEMERIS_TYPE":0,"CLASSIFICATION_TYPE":"U","NORAD_CAT_ID":48044,"ELEMENT_SET_NO":999,"REV_AT_EPOCH":25249,"BSTAR":-0.00078229,"MEAN_MOTION_DOT":-2.73e-06,"MEAN_MOTION_DDOT":0.0},{"OBJECT_NAME":"ONEWEB-0154","OBJECT_ID":"2021-025D","EPOCH":"2026-06-09T03:57:54.472320","MEAN_MOTION":13.13469491,"ECCENTRICITY":0.0001703,"INCLINATION":87.8951,"RA_OF_ASC_NODE":321.818,"ARG_OF_PERICENTER":94.6897,"MEAN_ANOMALY":265.4427,"EPHEMERIS_TYPE":0,"CLASSIFICATION_TYPE":"U","NORAD_CAT_ID":48045,"ELEMENT_SET_NO":999,"REV_AT_EPOCH":25245,"BSTAR":-0.00075335,"MEAN_MOTION_DOT":-2.62e-06,"MEAN_MOTION_DDOT":0.0},{"OBJECT_NAME":"ONEWEB-0116","OBJECT_ID":"2021-025E","EPOCH":"2026-06-09T04:53:57.888672","MEAN_MOTION":13.13469216,"ECCENTRICITY":0.0001757,"INCLINATION":87.8956,"RA_OF_ASC_NODE":321.8067,"ARG_OF_PERICENTER":91.1146,"MEAN_ANOMALY":269.0184,"EPHEMERIS_TYPE":0,"CLASSIFICATION_TYPE":"U","NORAD_CAT_ID":48046,"ELEMENT_SET_NO":999,"REV_AT_EPOCH":25260,"BSTAR":0.00050873,"MEAN_MOTION_DOT":1.99e-06,"MEAN_MOTION_DDOT":0.0}]